CSS (TIANHE)            
1 48274U 21035A   24068.76011840  .00035155  00000+0  38162-3 0  9994
2 48274  41.4685 336.8592 0008158 123.0254 237.1370 15.62741005163374
